#dP2022  2 20  0  0  0.00000000      96 __u+U ITR00 EXT  IAC
## 2198      0.00000000   900.00000000 59630 0.0000000000000
+  115   C06C07C08C09C10C11C12C13C14C19C20C21C22C23C24C25C26
+        C27C28C29C30C32C33C34C35C36C37C38C39C40C41C42C43C44
+        C45C46E01E02E03E04E05E07E09E10E11E12E13E14E15E18E21
+        E24E25E26E27E30E31E33E34E36G01G02G03G04G05G06G07G08
+        G09G10G11G12G13G14G15G16G17G18G19G20G21G22G23G24G25
+        G26G27G28G29G30G31G32J01J02J03R01R02R03R04R05R07R08
+        R09R11R12R13R14R15R17R18R19R20R21R22R24  0  0  0  0
++        10 10 10  8 10  8  9  9  9  8  8  8 10  9  8 10  8
++        10  9  9  8  9  9  8  8 10 10 10  9  9  9  9  8  9
++        10  8  9  7  7  7  7  8  8  9  9  8  7  7  9  8  8
++         9  7  8  8  9  9  9  9  7  6  7  8  8  7  7  8  8
++         8  6  7  8  9  8  6  8  8  8  9  7  8  9  8  7  8
++         8  9  8  6  7  8  7  9  9  9  9  8  8  9  9 10 10
++         9  9  7  9  7 10  8  8  9  8  9  8  8  0  0  0  0
%c M  cc GPS ccc cccc cccc cccc cccc ccccc ccccc ccccc ccccc
%c cc cc ccc ccc cccc cccc cccc cccc ccccc ccccc ccccc ccccc
%f  0.0000000  0.000000000  0.00000000000  0.000000000000000
%f  0.0000000  0.000000000  0.00000000000  0.000000000000000
%i    0    0    0    0      0      0      0      0         0
%i    0    0    0    0      0      0      0      0         0
/* IAC                                ULTRA-RAPID PREDICTION
/* S/V CLOCKS ARE ALIGNED TO GNSS TIME                      
/* G:C1WC2W R:C1PC2P E:C1XC5X C:C2IC6I J:C1CC2S             
/* PCV:IGS14_2196 OL/AL:FES2004  NONE     YN ORB:CoN CLK:CoN
*  2022 02 20 16 30  0.00000000
PC06 -19371.916389  33262.849425 -17448.665395     84.339069
PC07  -4655.862689  37487.963068 -18583.706971    -77.376183
PC08  -6630.657898  19964.038452  36556.190173    147.818841
PC09 -11543.610513  31859.412528 -25070.582019   -539.971876
PC10   1590.005743  39892.270770 -12555.218442    139.703051
PC11  22178.229264  -4944.222101  16283.743521   -196.337609
PC12  10754.658206  10985.607458  23328.300848    681.055088
PC13   2084.308475  23518.288718  35104.276770   -110.988877
PC14  16500.990834   3701.498556 -22164.617060    453.847576
PC19 -14349.754020   7537.623314  22742.343602    894.706479
PC20 -16133.197270 -12580.007087  19008.085288   -827.617929
PC21   8264.856690  26399.424392  -3579.324519   -940.914475
PC22  -4221.018484  24084.852534  13430.168232   -958.237941
PC23   8646.441427 -14148.605389  22442.375788   -956.298302
PC24  25335.541040  11119.585708  -3779.745542   -944.163387
PC25  23854.166147  -3411.386010  14084.596768   -776.594521
PC26  13161.128003  17160.749541 -17671.702820    776.404531
PC27  -2560.154765 -17575.242174 -21537.409121    680.458537
PC28  14523.682200 -21752.453894  -9723.985373     34.981856
PC29 -22787.629950  13919.524995  -8125.699947    517.767347
PC30 -17960.696436  -3137.188671 -21138.356945    493.728994
PC32  -8476.877459 -26352.209633   3578.957995   -967.932646
PC33  14337.629719  -7565.123415 -22707.379306   -958.782764
PC34  18519.149185   2333.026062  20727.265810   -464.685226
PC35 -14342.165647  22202.008671   9006.787879    148.638688
PC36 -24162.254231   2503.220059 -13711.155680   -911.832543
PC37 -11583.543414 -17559.286457  18331.694799   -957.784800
PC38 -14222.593572  19747.681028  34445.764382    212.786133
PC39 -23567.235921  33619.746145  -9952.285093     34.790909
PC40  -7969.815007  34912.455747 -22140.675369    246.059811
PC41   4393.408692 -23885.064298 -13689.301261   -940.888423
PC42  15996.800857  13535.374609 -18375.730962   -932.310409
PC43  22922.982537 -13304.410827   8682.658397   -940.556116
PC44   2999.041732  17719.849490  21349.600089    571.152046
PC45  -8306.479663  14164.389628 -22566.424017    685.621084
PC46 -25819.649668 -10240.780244   2432.127490   -178.933982
PE01 -22715.488246  -6766.412637 -17725.794986   -582.817077
PE02  22692.386170   6655.785474  17811.325515    281.520201
PE03  18186.338181  -4131.588235 -22990.144573   -529.777866
PE04 -15151.881613  22834.968679  11196.163940   -968.850703
PE05  10583.873890  17378.648767 -21495.948214   -207.225981
PE07   3062.806223 -28468.794942   7524.090910   -640.979102
PE09  -2839.862421  28417.627929  -7757.403238   5353.580176
PE10 -13894.327655  16758.828256  20055.996234   -496.450290
PE11  -2437.110148  16810.676648  24241.473146   4407.273852
PE12 -22664.367560  14061.546432  12865.924042   4749.776537
PE13   3152.470249 -16823.321652 -24138.855830    426.696780
PE14   -958.504845  21002.661011  10885.444576  -1752.583056
PE15  22728.489219 -14016.732070 -12749.992001    762.138181
PE18  -4400.320130 -25540.080070 -19563.972537  -1769.726716
PE21 -20986.879057 -20798.681953  -1669.421773   -718.300559
PE24   5806.417082  23468.028317 -17117.929842  -1401.209258
PE25  20882.384590  20941.973359   1413.033643   -564.288793
PE26 -19042.718563  -9353.066907 -20633.704687   -828.041711
PE27  -7047.846149 -23712.075112  16240.012850   -236.715853
PE30  11892.231925 -11710.380668  24432.218433   -289.786218
PE31 -10897.798333  12663.185776 -24432.684253   -492.470412
PE33 -28820.703025   2972.894652  -6082.845958   -459.250694
PE34  28836.671284  -3152.091745   5894.416308   -502.855791
PE36  18124.856587   9741.698743  21281.550667   -335.050786
PG01  -8876.363349 -13478.961736 -21444.410858    426.684535
PG02 -14187.169611  14837.151865  17586.689828   -651.197495
PG03 -12482.896011 -23056.141226  -4701.397145   -130.222347
PG04  -2853.694142 -20412.615254  16710.933444   -188.393356
PG05    137.129801  19959.136848  17286.822534    -72.107739
PG06 -25515.711416   5673.304620   5007.567118    207.641270
PG07 -23030.180009  -6736.433763  12291.061439    311.629524
PG08   4670.702611 -24720.643971  -7965.415779    -56.931757
PG09 -11755.598334 -10664.991707  21221.338383   -353.324733
PG10  18684.997817   4690.776531 -18269.391360   -325.835379
PG11 -16188.581177  12475.328032  16955.575088    -82.815195
PG12   8675.811660  24112.674508  -7504.456492   -173.922856
PG13 -12880.799393  23050.466635  -2025.933630    264.864234
PG14 -18844.916122  -5621.728318 -17889.590795    -86.116568
PG15  -1027.154828  25034.609665  -8718.693021    -82.359014
PG16   5266.057129 -17085.225241  19212.404614   -471.883787
PG17 -17287.564901   5277.797095 -19046.886021    577.628007
PG18  22923.282984   6418.070559  11882.572487    236.038871
PG19 -18636.552222  11980.286520 -14770.946096    121.468459
PG20  -7885.564576  13992.907992  21181.549142    516.617076
PG21   1906.383836 -15231.435431 -20927.994353    158.345724
PG22  17890.170778 -15407.537986 -11578.215544    216.473694
PG23  19806.895308  14515.696899 -10252.982911     -0.430314
PG24   4757.200154  15298.084651 -21500.224257    273.453834
PG25  17482.295914  19798.341578   3713.184134    288.239601
PG26  14311.456314  -6972.338890  21204.665976    184.849439
PG27  12377.286701 -23098.812453   2487.408517    127.104233
PG28 -15191.134093   2646.837775 -21076.485556    396.290848
PG29   8679.743819  13478.606044  21120.003070   -482.579116
PG30 -26420.796770   -770.386818   3791.882084   -514.540191
PG31  24929.078228  -6772.654660   7026.322568   -165.617743
PG32  17561.685595  -9775.276621 -17138.199596    -71.169125
PJ01 -28862.962445  24684.852055  23281.591583    237.393151
PJ02 -23155.085803  17578.706250 -26012.512853     -1.475133
PJ03 -29152.436633  30381.788008   7407.082669     -0.618567
PR01  -2156.349167  24404.290187   7086.933496      7.090882
PR02   6361.924801  21288.311204 -12545.241354    510.230060
PR03  10805.813634   5254.541410 -22462.801156     51.826490
PR04   8903.627171 -13434.514687 -19738.124900    128.552844
PR05   2294.566671 -24654.839210  -6061.710929     88.059783
PR07 -10879.993760  -4346.031411  22692.472267     31.838716
PR08  -8976.327904  13568.440519  19713.682315    -63.656634
PR09 -17657.063518 -15046.407879  10698.353365     40.513473
PR11 -15871.591698   2347.745313 -19827.515554     45.220525
PR12   1528.345640  12748.785663 -22026.160283     17.231361
PR13  16844.052134  15109.661374 -11802.871103    -18.539566
PR14  23087.339760   8561.458911   6644.795840     74.574029
PR15  15371.790889  -2761.093963  20181.845469     98.051239
PR17  19477.934496  -3288.266762  16169.827320    503.300578
PR18  21983.604941 -12861.958682    642.379952    107.908872
PR19  14263.167007 -15428.144278 -14458.065831   -178.902498
PR20  -5002.978502  -9036.771765 -23311.417203    -65.302981
PR21 -20110.229577   4205.410156 -15101.433288   -279.569784
PR22 -21925.287078  13140.417851    306.974639   -165.939243
PR24   6087.730104   8961.207448  23113.304769     81.089343
EOF
